GLOBALSTAR M057         
1 25943U 99058A   25328.30682506 -.00000049  00000+0  39875-3 0  9992
2 25943  51.9985 253.7827 0002811 355.4161   4.6662 12.24829095186554
GLOBALSTAR M059         
1 25944U 99058B   25328.42731258 -.00000078  00000+0  10062-3 0  9994
2 25944  51.9986 133.6669 0000879  99.1121 280.0355 11.99987754593285
GLOBALSTAR M056         
1 25945U 99058C   25327.80927448 -.00000096  00000+0 -95722-4 0  9992
2 25945  51.9937 133.2070 0001924 116.3792 352.5642 12.04782114181863
GLOBALSTAR M031         
1 25946U 99058D   25328.54897529  .00000026  00000+0  11810-2 0  9996
2 25946  51.9987  13.9113 0001661 143.5164   4.6516 12.16043759184051
GLOBALSTAR M039         
1 25961U 99062A   25327.94998985 -.00000091  00000+0  71156-4 0  9993
2 25961  51.9815 142.1044 0002390   7.8524 352.2379 12.62337752200393
GLOBALSTAR M034         
1 25962U 99062B   25328.39678213 -.00000019  00000+0  99052-3 0  9997
2 25962  51.9887 314.9336 0014447 345.2697 163.3125 11.79452405157292
GLOBALSTAR M029         
1 25963U 99062C   25328.46674420 -.00000091  00000+0 -58291-4 0  9994
2 25963  51.9833  21.4591 0002671  80.6892  21.5616 11.99902900188364
GLOBALSTAR M061         
1 25964U 99062D   25328.00650169 -.00000090  00000+0 -16365-3 0  9993
2 25964  51.9751 142.1028 0004724 262.6710 270.2748 11.76777957139993
